STARLINK-1041           
1 44746U 19074AK  23067.11701636  .00009700  00000+0  66936-3 0  9997
2 44746  53.0513 113.8135 0001058  89.8073 270.3037 15.06391597182936
STARLINK-1042           
1 44747U 19074AL  23066.91667824  .00046428  00000+0  31859-2 0  9998
2 44747  53.0530 114.5032 0001287  80.5768 219.4654 15.05567243  1305
STARLINK-1043           
1 44748U 19074AM  23067.10964284  .00002771  00000+0  20490-3 0  9994
2 44748  53.0531 113.8483 0000567  69.2339 290.8711 15.06383829182930
STARLINK-1046           
1 44751U 19074AQ  23067.12438625  .00004106  00000+0  29446-3 0  9999
2 44751  53.0520 113.7799 0001682  92.1848 267.9334 15.06394413182937
STARLINK-1047           
1 44752U 19074AR  23066.81292616  .00014590  00000+0  99648-3 0  9992
2 44752  53.0538  95.1744 0001383  90.2296 269.8852 15.06395394182995
STARLINK-1048           
1 44753U 19074AS  23067.01749948  .00021153  00000+0  14349-2 0  9998
2 44753  53.0505  74.2581 0001487 100.1879 259.9278 15.06394864183477
STARLINK-1049           
1 44754U 19074AT  23067.02118140  .00018408  00000+0  12515-2 0  9996
2 44754  53.0524  74.2427 0001365  96.5524 263.5621 15.06399409183471
STARLINK-1052           
1 44757U 19074AW  23067.08936711  .00009064  00000+0  62674-3 0  9997
2 44757  53.0519  93.9360 0001260  90.5922 269.5211 15.06393349183201
STARLINK-1053           
1 44758U 19074AX  23067.10596860  .00020427  00000+0  13861-2 0  9997
2 44758  53.0520 113.9520 0001882  87.7326 272.3879 15.06404354182931
STARLINK-1054           
1 44759U 19074AY  23067.15387295  .00013468  00000+0  92137-3 0  9994
2 44759  53.0509 113.6460 0001720 102.1062 258.0119 15.06397947182947
STARLINK-1055           
1 44760U 19074AZ  23066.85658967  .00041775  00000+0  25177-2 0  9990
2 44760  53.0503 114.1072 0001650  14.6657 345.4381 15.10392471182749
STARLINK-1056           
1 44761U 19074BA  23067.15018882  .00003722  00000+0  26863-3 0  9995
2 44761  53.0519 113.6654 0001551  96.6250 263.4915 15.06398949182941
STARLINK-1057           
1 44762U 19074BB  23067.08568527  .00005198  00000+0  36765-3 0  9995
2 44762  53.0519  93.9532 0001596  82.4320 277.6850 15.06394097183202
STARLINK-1058           
1 44763U 19074BC  23067.10500976  .00017371  00000+0  11824-2 0  9997
2 44763  53.0530 113.8584 0001192 100.1609 259.9514 15.06392925182932
