[
  {
    "OBJECT_NAME": "STARLINK-1041",
    "OBJECT_ID": "2019-074AK",
    "EPOCH": "2023-03-08T02:48:30.213504",
    "MEAN_MOTION": 15.06391597,
    "ECCENTRICITY": 0.0001058,
    "INCLINATION": 53.0513,
    "RA_OF_ASC_NODE": 113.8135,
    "ARG_OF_PERICENTER": 89.8073,
    "MEAN_ANOMALY": 270.3037,
    "EPHEMERIS_TYPE": 0,
    "CLASSIFICATION_TYPE": "U",
    "NORAD_CAT_ID": 44746,
    "ELEMENT_SET_NO": 999,
    "REV_AT_EPOCH": 18293,
    "BSTAR": 0.00066936,
    "MEAN_MOTION_DOT": 9.7e-5,
    "MEAN_MOTION_DDOT": 0
  },
  {
    "OBJECT_NAME": "STARLINK-1042",
    "OBJECT_ID": "2019-074AL",
    "EPOCH": "2023-03-07T22:00:00.999936",
    "MEAN_MOTION": 15.05567243,
    "ECCENTRICITY": 0.0001287,
    "INCLINATION": 53.053,
    "RA_OF_ASC_NODE": 114.5032,
    "ARG_OF_PERICENTER": 80.5768,
    "MEAN_ANOMALY": 219.4654,
    "EPHEMERIS_TYPE": 0,
    "CLASSIFICATION_TYPE": "U",
    "NORAD_CAT_ID": 44747,
    "ELEMENT_SET_NO": 999,
    "REV_AT_EPOCH": 130,
    "BSTAR": 0.0031859,
    "MEAN_MOTION_DOT": 0.00046428,
    "MEAN_MOTION_DDOT": 0
  },
  {
    "OBJECT_NAME": "STARLINK-1043",
    "OBJECT_ID": "2019-074AM",
    "EPOCH": "2023-03-08T02:37:53.141376",
    "MEAN_MOTION": 15.06383829,
    "ECCENTRICITY": 5.67e-5,
    "INCLINATION": 53.0531,
    "RA_OF_ASC_NODE": 113.8483,
    "ARG_OF_PERICENTER": 69.2339,
    "MEAN_ANOMALY": 290.8711,
    "EPHEMERIS_TYPE": 0,
    "CLASSIFICATION_TYPE": "U",
    "NORAD_CAT_ID": 44748,
    "ELEMENT_SET_NO": 999,
    "REV_AT_EPOCH": 18293,
    "BSTAR": 0.0002049,
    "MEAN_MOTION_DOT": 2.771e-5,
    "MEAN_MOTION_DDOT": 0
  },
  {
    "OBJECT_NAME": "STARLINK-1046",
    "OBJECT_ID": "2019-074AQ",
    "EPOCH": "2023-03-08T02:59:06.972000",
    "MEAN_MOTION": 15.06394413,
    "ECCENTRICITY": 0.0001682,
    "INCLINATION": 53.052,
    "RA_OF_ASC_NODE": 113.7799,
    "ARG_OF_PERICENTER": 92.1848,
    "MEAN_ANOMALY": 267.9334,
    "EPHEMERIS_TYPE": 0,
    "CLASSIFICATION_TYPE": "U",
    "NORAD_CAT_ID": 44751,
    "ELEMENT_SET_NO": 999,
    "REV_AT_EPOCH": 18293,
    "BSTAR": 0.00029446,
    "MEAN_MOTION_DOT": 4.106e-5,
    "MEAN_MOTION_DDOT": 0
  },
  {
    "OBJECT_NAME": "STARLINK-1047",
    "OBJECT_ID": "2019-074AR",
    "EPOCH": "2023-03-07T19:30:36.820224",
    "MEAN_MOTION": 15.06395394,
    "ECCENTRICITY": 0.0001383,
    "INCLINATION": 53.0538,
    "RA_OF_ASC_NODE": 95.1744,
    "ARG_OF_PERICENTER": 90.2296,
    "MEAN_ANOMALY": 269.8852,
    "EPHEMERIS_TYPE": 0,
    "CLASSIFICATION_TYPE": "U",
    "NORAD_CAT_ID": 44752,
    "ELEMENT_SET_NO": 999,
    "REV_AT_EPOCH": 18299,
    "BSTAR": 0.00099648,
    "MEAN_MOTION_DOT": 0.0001459,
    "MEAN_MOTION_DDOT": 0
  },
  {
    "OBJECT_NAME": "STARLINK-1048",
    "OBJECT_ID": "2019-074AS",
    "EPOCH": "2023-03-08T00:25:11.955072",
    "MEAN_MOTION": 15.06394864,
    "ECCENTRICITY": 0.0001487,
    "INCLINATION": 53.0505,
    "RA_OF_ASC_NODE": 74.2581,
    "ARG_OF_PERICENTER": 100.1879,
    "MEAN_ANOMALY": 259.9278,
    "EPHEMERIS_TYPE": 0,
    "CLASSIFICATION_TYPE": "U",
    "NORAD_CAT_ID": 44753,
    "ELEMENT_SET_NO": 999,
    "REV_AT_EPOCH": 18347,
    "BSTAR": 0.0014349,
    "MEAN_MOTION_DOT": 0.00021153,
    "MEAN_MOTION_DDOT": 0
  },
  {
    "OBJECT_NAME": "STARLINK-1049",
    "OBJECT_ID": "2019-074AT",
    "EPOCH": "2023-03-08T00:30:30.072960",
    "MEAN_MOTION": 15.06399409,
    "ECCENTRICITY": 0.0001365,
    "INCLINATION": 53.0524,
    "RA_OF_ASC_NODE": 74.2427,
    "ARG_OF_PERICENTER": 96.5524,
    "MEAN_ANOMALY": 263.5621,
    "EPHEMERIS_TYPE": 0,
    "CLASSIFICATION_TYPE": "U",
    "NORAD_CAT_ID": 44754,
    "ELEMENT_SET_NO": 999,
    "REV_AT_EPOCH": 18347,
    "BSTAR": 0.0012515,
    "MEAN_MOTION_DOT": 0.00018408,
    "MEAN_MOTION_DDOT": 0
  },
  {
    "OBJECT_NAME": "STARLINK-1052",
    "OBJECT_ID": "2019-074AW",
    "EPOCH": "2023-03-08T02:08:41.318304",
    "MEAN_MOTION": 15.06393349,
    "ECCENTRICITY": 0.000126,
    "INCLINATION": 53.0519,
    "RA_OF_ASC_NODE": 93.936,
    "ARG_OF_PERICENTER": 90.5922,
    "MEAN_ANOMALY": 269.5211,
    "EPHEMERIS_TYPE": 0,
    "CLASSIFICATION_TYPE": "U",
    "NORAD_CAT_ID": 44757,
    "ELEMENT_SET_NO": 999,
    "REV_AT_EPOCH": 18320,
    "BSTAR": 0.00062674,
    "MEAN_MOTION_DOT": 9.064e-5,
    "MEAN_MOTION_DDOT": 0
  },
  {
    "OBJECT_NAME": "STARLINK-1053",
    "OBJECT_ID": "2019-074AX",
    "EPOCH": "2023-03-08T02:32:35.687040",
    "MEAN_MOTION": 15.06404354,
    "ECCENTRICITY": 0.0001882,
    "INCLINATION": 53.052,
    "RA_OF_ASC_NODE": 113.952,
    "ARG_OF_PERICENTER": 87.7326,
    "MEAN_ANOMALY": 272.3879,
    "EPHEMERIS_TYPE": 0,
    "CLASSIFICATION_TYPE": "U",
    "NORAD_CAT_ID": 44758,
    "ELEMENT_SET_NO": 999,
    "REV_AT_EPOCH": 18293,
    "BSTAR": 0.0013861,
    "MEAN_MOTION_DOT": 0.00020427,
    "MEAN_MOTION_DDOT": 0
  },
  {
    "OBJECT_NAME": "STARLINK-1054",
    "OBJECT_ID": "2019-074AY",
    "EPOCH": "2023-03-08T03:41:34.622880",
    "MEAN_MOTION": 15.06397947,
    "ECCENTRICITY": 0.000172,
    "INCLINATION": 53.0509,
    "RA_OF_ASC_NODE": 113.646,
    "ARG_OF_PERICENTER": 102.1062,
    "MEAN_ANOMALY": 258.0119,
    "EPHEMERIS_TYPE": 0,
    "CLASSIFICATION_TYPE": "U",
    "NORAD_CAT_ID": 44759,
    "ELEMENT_SET_NO": 999,
    "REV_AT_EPOCH": 18294,
    "BSTAR": 0.00092137,
    "MEAN_MOTION_DOT": 0.00013468,
    "MEAN_MOTION_DDOT": 0
  },
  {
    "OBJECT_NAME": "STARLINK-1055",
    "OBJECT_ID": "2019-074AZ",
    "EPOCH": "2023-03-07T20:33:29.347488",
    "MEAN_MOTION": 15.10392471,
    "ECCENTRICITY": 0.000165,
    "INCLINATION": 53.0503,
    "RA_OF_ASC_NODE": 114.1072,
    "ARG_OF_PERICENTER": 14.6657,
    "MEAN_ANOMALY": 345.4381,
    "EPHEMERIS_TYPE": 0,
    "CLASSIFICATION_TYPE": "U",
    "NORAD_CAT_ID": 44760,
    "ELEMENT_SET_NO": 999,
    "REV_AT_EPOCH": 18274,
    "BSTAR": 0.0025177,
    "MEAN_MOTION_DOT": 0.00041775,
    "MEAN_MOTION_DDOT": 0
  },
  {
    "OBJECT_NAME": "STARLINK-1056",
    "OBJECT_ID": "2019-074BA",
    "EPOCH": "2023-03-08T03:36:16.314048",
    "MEAN_MOTION": 15.06398949,
    "ECCENTRICITY": 0.0001551,
    "INCLINATION": 53.0519,
    "RA_OF_ASC_NODE": 113.6654,
    "ARG_OF_PERICENTER": 96.625,
    "MEAN_ANOMALY": 263.4915,
    "EPHEMERIS_TYPE": 0,
    "CLASSIFICATION_TYPE": "U",
    "NORAD_CAT_ID": 44761,
    "ELEMENT_SET_NO": 999,
    "REV_AT_EPOCH": 18294,
    "BSTAR": 0.00026863,
    "MEAN_MOTION_DOT": 3.722e-5,
    "MEAN_MOTION_DDOT": 0
  },
  {
    "OBJECT_NAME": "STARLINK-1057",
    "OBJECT_ID": "2019-074BB",
    "EPOCH": "2023-03-08T02:03:23.207328",
    "MEAN_MOTION": 15.06394097,
    "ECCENTRICITY": 0.0001596,
    "INCLINATION": 53.0519,
    "RA_OF_ASC_NODE": 93.9532,
    "ARG_OF_PERICENTER": 82.432,
    "MEAN_ANOMALY": 277.685,
    "EPHEMERIS_TYPE": 0,
    "CLASSIFICATION_TYPE": "U",
    "NORAD_CAT_ID": 44762,
    "ELEMENT_SET_NO": 999,
    "REV_AT_EPOCH": 18320,
    "BSTAR": 0.00036765,
    "MEAN_MOTION_DOT": 5.198e-5,
    "MEAN_MOTION_DDOT": 0
  },
  {
    "OBJECT_NAME": "STARLINK-1058",
    "OBJECT_ID": "2019-074BC",
    "EPOCH": "2023-03-08T02:31:12.843264",
    "MEAN_MOTION": 15.06392925,
    "ECCENTRICITY": 0.0001192,
    "INCLINATION": 53.053,
    "RA_OF_ASC_NODE": 113.8584,
    "ARG_OF_PERICENTER": 100.1609,
    "MEAN_ANOMALY": 259.9514,
    "EPHEMERIS_TYPE": 0,
    "CLASSIFICATION_TYPE": "U",
    "NORAD_CAT_ID": 44763,
    "ELEMENT_SET_NO": 999,
    "REV_AT_EPOCH": 18293,
    "BSTAR": 0.0011824,
    "MEAN_MOTION_DOT": 0.00017371,
    "MEAN_MOTION_DDOT": 0
  }
]
